CSS (TIANHE)            
1 48274U 21035A   25124.79398139  .00017249  00000+0  20128-3 0  9997
2 48274  41.4647 284.5220 0005732 207.6991 152.3543 15.61213922229375
TYVAK-0130              
1 48606U 21041BF  25125.23143177  .00010656  00000+0  49658-3 0  9997
2 48606  53.0332 109.3335 0010724 357.2948   2.7987 15.20384850218187
HAIYANG-2D              
1 48621U 21043A   25126.56201330 -.00000001  00000+0  73272-4 0  9993
2 48621  65.9977 237.0546 0007965 262.1984  97.8180 13.83376268200341
2021-050D               
1 48843U 21050D   25126.43545186  .00009512  00000+0  40423-3 0  9999
2 48843  97.3685 205.6432 0008301 139.5290 220.6565 15.23227794217031
BRIK-II                 
1 48876U 21058F   25125.88475690  .00069247  00000+0  79837-3 0  9995
2 48876  60.6627 297.2062 0001666  91.9128 268.2168 15.61485374214968
TYVAK-0173              
1 48892U 21059P   25126.18736250  .00002848  00000+0  38437-3 0  9995
2 48892  95.9846 299.6162 0008646 339.2235  20.8629 14.79572704208014
TUBIN                   
1 48900U 21059X   25126.38535683  .00050488  00000+0  68462-3 0  9998
2 48900  97.6738 292.9180 0002367   4.8097 355.3180 15.57512336214718
MANDRAKE 2 ABLE         
1 48907U 21059AE  25125.42386355  .00017262  00000+0  45229-3 0  9998
2 48907  97.6854 285.1654 0006521  45.6794 314.4984 15.38744930214126
MANDRAKE 2 BAKER        
1 48908U 21059AF  25126.18356450  .00019993  00000+0  49558-3 0  9998
2 48908  97.6857 287.0057 0005162  27.6857 332.4663 15.40418040214293
PACE-1                  
1 48909U 21059AG  25125.39823719  .00026167  00000+0  55735-3 0  9993
2 48909  97.6749 286.5242 0004829  24.3014 335.8461 15.44910550214304
YAM-2                   
1 48911U 21059AJ  25126.41620383  .00099862  00000+0  79389-3 0  9995
2 48911  97.6694 298.3704 0002189 305.3121  54.7936 15.70921529215041
YAM-3                   
1 48915U 21059AN  25126.43095783  .00012859  00000+0  35323-3 0  9992
2 48915  97.6799 285.8996 0006779  29.1154 331.0467 15.37350344214280
FARADAY_PHOENIX         
1 48924U 21059AX  25125.41323543  .00020612  00000+0  47634-3 0  9991
2 48924  97.6825 288.8975 0008982  16.6649 343.4891 15.42503464214342
DEMO8 (TENZING)         
1 48951U 21059CA  25126.18821811  .00016408  00000+0  41962-3 0  9993
2 48951  97.6897 289.2336 0009670  30.3972 329.7831 15.39474272214402
ASTROCAST-0201          
1 48954U 21059CD  25126.44429778  .00037742  00000+0  60411-3 0  9995
2 48954  97.6543 292.6280 0005530  46.6962 313.4750 15.53023174214798
ASTROCAST-0203          
1 48955U 21059CE  25126.39777496  .00040007  00000+0  64053-3 0  9997
2 48955  97.6550 292.1128 0004188  34.8107 325.3418 15.53011292214781
ASTROCAST-0205          
1 48960U 21059CK  25126.48703217  .00037597  00000+0  60403-3 0  9998
2 48960  97.6509 292.4846 0006270 343.3038  16.8006 15.52915576214801
NAPA-2                  
1 48963U 21059CN  25126.51411009  .00026538  00000+0  56066-3 0  9993
2 48963  97.6754 286.6781 0006095  20.1102 340.0385 15.45141955214363
W-CUBE                  
1 48965U 21059CQ  25125.42714565  .00085115  00000+0  85984-3 0  9994
2 48965  97.6681 293.5210 0002995 324.1273  35.9784 15.65056784214662
JILIN-1 GAOFEN 3D01     
1 49004U 21061B   25126.52324060  .00044208  00000+0  77293-3 0  9993
2 49004  97.3489 199.3013 0007877 350.3928   9.7171 15.50489664213340
JILIN-1 GAOFEN 3D03     
1 49006U 21061D   25126.47233651  .00028373  00000+0  69571-3 0  9999
2 49006  97.3457 191.7784 0008752 128.0373 232.1665 15.40645514212857
XINGSHIDAI 10           
1 49007U 21061E   25126.55515091  .00026844  00000+0  66578-3 0  9995
2 49007  97.3450 191.8841 0008195 117.9226 242.2850 15.40313808212868
FENGYUN 3E              
1 49008U 21062A   25126.38874854  .00000048  00000+0  43256-4 0  9990
2 49008  98.7424 129.5328 0001950 144.8435 215.2870 14.19862857198858
ISS (NAUKA)             
1 49044U 21066A   25125.57597161  .00009238  00000+0  17348-3 0  9999
2 49044  51.6347 158.1300 0002319  81.1500 278.9752 15.49356886212894
LEDSAT                  
1 49069U 21073D   25126.21204292  .00069451  00000+0  97927-3 0  9990
2 49069  97.3904 206.4304 0011903 197.7793 162.3047 15.56299003206087
STARLINK-3100           
1 49144U 21082Q   25125.87121592  .00001291  00000+0  11597-3 0  9993
2 49144  69.9997 350.5661 0003107 271.4180  88.6623 14.98333886199873
CUTE                    
1 49263U 21088D   25125.47769808  .00019316  00000+0  40210-3 0  9996
2 49263  97.4519 200.7477 0007990  20.3936 339.7630 15.45623073199002
2021-091B               
1 49316U 21091B   25126.42196622  .00004328  00000+0  20986-3 0  9998
2 49316  97.4517 315.2271 0011953 310.5850  49.4344 15.18986167197265
2021-091H               
1 49322U 21091H   25126.19256093  .01366964  14482-2  10319-2 0  9996
2 49322  97.3835 342.0182 0005462 247.3939 112.6770 16.15620597199107
SDGSAT 1                
1 49387U 21100A   25126.20958889  .00004297  00000+0  20518-3 0  9990
2 49387  97.3172 181.9284 0005268 308.6929  51.3834 15.19549241194114
TEIKYOSAT-4 (OORURI)    
1 49396U 21102B   25126.16935953  .00002722  00000+0  18319-3 0  9991
2 49396  97.4139 165.8376 0010877 248.1936 111.8135 15.07492763191362
Z-SAT                   
1 49399U 21102E   25126.45484015  .00005395  00000+0  29876-3 0  9993
2 49399  97.3836 169.0017 0017241 217.7497 142.2527 15.14108339191816
HIBARI                  
1 49400U 21102F   25125.87670035  .00011448  00000+0  49846-3 0  9995
2 49400  97.3799 172.8633 0014260 194.1231 165.9608 15.22290933192044
KOSEN-1                 
1 49402U 21102H   25126.11028882  .00008346  00000+0  39150-3 0  9992
2 49402  97.3741 171.8269 0015842 193.3216 166.7603 15.19798538192053
GLOBAL-14               
1 49469U 21106A   25125.50358993  .00019335  00000+0  57423-3 0  9993
2 49469  42.0065 158.4692 0005695  80.5479 279.6002 15.34368938195230
GAOFEN-3 02             
1 49495U 21109A   25126.21603838  .00000113  00000+0  47349-4 0  9996
2 49495  98.4122 135.0322 0003573 119.3834 240.7713 14.42216459181655
GLOBAL-12               
1 49772U 21115BA  25126.51915254  .00016875  00000+0  43558-3 0  9991
2 49772  53.1991 169.8341 0011262 359.3838   0.7151 15.39238484193107
GLOBAL-13               
1 49773U 21115BB  25126.35873225  .00016239  00000+0  41784-3 0  9998
2 49773  53.2002 171.8306 0010242 346.0499  14.0222 15.39376812193069
GLOBAL-17               
1 49949U 21120A   25124.52783673  .00018063  00000+0  52985-3 0  9995
2 49949  41.9969 286.1952 0006894 297.2165  62.7970 15.34785270191810
GLOBAL-16               
1 49950U 21120B   25125.47174672  .00019261  00000+0  57196-3 0  9995
2 49950  41.9993 280.2728 0006875 263.7217  96.2838 15.34366948191957
XW-3 (CAS-9)            
1 50466U 21131B   25126.24604264  .00000860  00000+0  28267-3 0  9994
2 50466  98.5086 215.7709 0003317 225.4862 134.6055 14.40770980176506
ION SCV-004             
1 50993U 22002K   25125.66719093  .00006600  00000+0  26441-3 0  9999
2 50993  97.3390 185.9827 0008161  12.0638 348.0794 15.25338221183071
IRIS-A                  
1 51044U 22002BN  25125.63357179  .00303079  00000+0  12152-2 0  9990
2 51044  97.3238 204.3859 0005582 240.0749 119.9968 15.85716720184339
ETV-A1                  
1 51060U 22002CE  25126.46403135  .00010446  00000+0  34999-3 0  9991
2 51060  97.3407 190.5244 0006371  18.9654 341.1824 15.31094267183428
BRO-5                   
1 51061U 22002CF  25126.35310975  .00011000  00000+0  32046-3 0  9997
2 51061  97.3473 194.3151 0006141  14.5467 345.5953 15.35545486183621
VZLUSAT-2               
1 51085U 22002DF  25126.44473138  .00043317  00000+0  66906-3 0  9992
2 51085  97.3350 198.4437 0004145 323.2989  36.7980 15.53988894183975
L-SAR 01A               
1 51284U 22007A   25126.25672938  .00001168  00000+0  13186-3 0  9996
2 51284  97.8116 134.5015 0001590  91.2169 268.9230 14.88410913177943
INSPIRESAT 1            
1 51657U 22013B   25125.65145268  .00030641  00000+0  68337-3 0  9997
2 51657  97.4950 154.1344 0008900 101.4484 258.7763 15.43482887178993
L-SAR 01B               
1 51822U 22018A   25126.15584448  .00001133  00000+0  12812-3 0  9990
2 51822  97.8103 134.3851 0001496  94.9457 265.1931 14.88414460173166
2022-019D               
1 51827U 22019D   25126.21296082  .00023917  00000+0  62804-3 0  9997
2 51827  97.3953 203.3161 0010994 167.2109 192.9417 15.38561375176625
JILIN-1 GAOFEN 03D14    
1 51831U 22019H   25126.48114233  .00026848  00000+0  67820-3 0  9997
2 51831  97.3975 205.8815 0011558 154.6801 205.5014 15.39720484176817
2022-019J               
1 51832U 22019J   25126.50319092  .00002843  00000+0  14272-3 0  9993
2 51832  97.3909 194.1615 0008614 199.5450 160.5455 15.18077178176057
JILIN-1 GAOFEN 03D16    
1 51834U 22019L   25126.48947988  .00028054  00000+0  68447-3 0  9998
2 51834  97.3950 206.2678 0008732 154.9387 205.2285 15.40799640176849
JILIN-1 GAOFEN 03D11    
1 51835U 22019M   25126.49116875  .00027205  00000+0  69234-3 0  9995
2 51835  97.3985 206.0995 0007364 168.6418 191.4996 15.39532168176826
JILIN-1 GAOFEN 03D17    
1 51838U 22019Q   25126.48592676  .00096527  00000+0  94798-3 0  9990
2 51838  97.3971 212.5218 0007138 157.9264 202.2305 15.65705948177253
JILIN-1 GAOFEN 03D15    
1 51839U 22019R   25126.51758169  .00024409  00000+0  64850-3 0  9992
2 51839  97.3958 205.5905 0005718 182.7108 177.4107 15.38241380176818
JILIN-1 GAOFEN 03D10    
1 51840U 22019S   25126.50413365  .00027599  00000+0  70215-3 0  9994
2 51840  97.3962 206.2196 0003046 112.2375 247.9194 15.39561274176830
JILIN-1 GAOFEN 03D12    
1 51841U 22019T   25126.47215976  .00025258  00000+0  67142-3 0  9994
2 51841  97.3945 205.4809 0005922 137.7047 222.4655 15.38216785176807
JILIN-1 GAOFEN 03D18    
1 51844U 22019W   25126.51238356  .00027931  00000+0  71154-3 0  9997
2 51844  97.3939 205.4805 0012137 153.6724 206.5140 15.39446998176718
